NORAD_CAT_ID,OBJECT_NAME,OBJECT_TYPE,EPOCH,MEAN_MOTION,ECCENTRICITY,INCLINATION,RA_OF_ASC_NODE,ARG_OF_PERICENTER,MEAN_ANOMALY,BSTAR,MEAN_MOTION_DOT,MEAN_MOTION_DDOT,TLE_LINE0,TLE_LINE1,TLE_LINE2,SEMIMAJOR_AXIS,PERIOD,APOGEE,PERIGEE,DECAYED
53984.0,STARLINK-5142,PAYLOAD,2022-12-19 06:54:26,15.08841837,0.0001475,53.2167,95.3479,59.1974,300.9163,0.00013143,1.804e-05,0.0,0 STARLINK-5142,1 53984U 22125W   22353.28780655  .00001804  00000-0  13143-3 0  9995,2 53984  53.2167  95.3479 0001475  59.1974 300.9163 15.08841837 11867,6917.875,95.437,540.76,538.719,0.0
53984.0,STARLINK-5142,PAYLOAD,2022-12-19 16:26:44,15.08858392,0.0001492,53.2164,93.5637,57.4216,302.692,0.00031491,4.73e-05,0.0,0 STARLINK-5142,1 53984U 22125W   22353.68523722  .00004730  00000-0  31491-3 0  9996,2 53984  53.2164  93.5637 0001492  57.4216 302.6920 15.08858392 11997,6917.824000000001,95.436,540.721,538.6569999999998,0.0
53984.0,STARLINK-5142,PAYLOAD,2022-12-20 13:06:44,15.08860677,0.0001643,53.2165,89.6974,59.7822,300.3333,0.00032139,4.833e-05,0.0,0 STARLINK-5142,1 53984U 22125W   22354.54635022  .00004833  00000-0  32139-3 0  9993,2 53984  53.2165  89.6974 0001643  59.7822 300.3333 15.08860677 12054,6917.816999999999,95.436,540.819,538.5459999999998,0.0
53984.0,STARLINK-5142,PAYLOAD,2022-12-20 16:17:30,15.08863425,0.000168,53.2167,89.1031,56.416,303.6993,0.00027953,4.166e-05,0.0,0 STARLINK-5142,1 53984U 22125W   22354.67882721  .00004166  00000-0  27953-3 0  9994,2 53984  53.2167  89.1031 0001680  56.4160 303.6993 15.08863425 12147,6917.809,95.436,540.836,538.512,0.0
53984.0,STARLINK-5142,PAYLOAD,2022-12-20 17:52:53,15.08854951,0.0001563,53.217,88.8058,52.4739,307.6395,6.4364e-05,7.37e-06,0.0,0 STARLINK-5142,1 53984U 22125W   22354.74506857  .00000737  00000-0  64364-4 0  9993,2 53984  53.2170  88.8058 0001563  52.4739 307.6395 15.08854951 12159,6917.835,95.437,540.781,538.618,0.0
53984.0,STARLINK-5142,PAYLOAD,2022-12-21 11:22:09,15.08831828,0.0001655,53.2168,85.5344,58.3324,301.7829,-0.00029722,-5.014e-05,0.0,0 STARLINK-5142,1 53984U 22125W   22355.47371718 -.00005014  00000-0 -29722-3 0  9993,2 53984  53.2168  85.5344 0001655  58.3324 301.7829 15.08831828 12262,6917.905,95.438,540.915,538.625,0.0
53984.0,STARLINK-5142,PAYLOAD,2022-12-21 12:57:33,15.08822723,0.0001483,53.2176,85.2381,57.3072,302.8063,7.6785e-05,9.34e-06,0.0,0 STARLINK-5142,1 53984U 22125W   22355.53996932  .00000934  00000-0  76785-4 0  9997,2 53984  53.2176  85.2381 0001483  57.3072 302.8063 15.08822723 12207,6917.933000000001,95.439,540.8240000000002,538.7719999999998,0.0
53984.0,STARLINK-5142,PAYLOAD,2022-12-21 16:08:19,15.08825045,0.0001695,53.2174,84.6437,53.0919,307.0228,-0.00012779,-2.32e-05,0.0,0 STARLINK-5142,1 53984U 22125W   22355.67245209 -.00002320  00000-0 -12779-3 0  9991,2 53984  53.2174  84.6437 0001695  53.0919 307.0228 15.08825045 12297,6917.926,95.439,540.964,538.619,0.0
53984.0,STARLINK-5142,PAYLOAD,2022-12-22 09:37:33,15.08837144,0.0001602,53.2176,81.3724,52.7416,307.3722,-7.288100000000001e-05,-1.448e-05,0.0,0 STARLINK-5142,1 53984U 22125W   22356.40108491 -.00001448  00000-0 -72881-4 0  9995,2 53984  53.2176  81.3724 0001602  52.7416 307.3722 15.08837144 12406,6917.889,95.438,540.862,538.646,0.0
53984.0,STARLINK-5142,PAYLOAD,2022-12-22 12:48:19,15.08837832,0.0001579,53.2174,80.7781,50.185,309.9281,-5.0316e-05,-1.089e-05,0.0,0 STARLINK-5142,1 53984U 22125W   22356.53356348 -.00001089  00000-0 -50316-4 0  9995,2 53984  53.2174  80.7781 0001579  50.1850 309.9281 15.08837832 12353,6917.887,95.438,540.844,538.66,0.0
53984.0,STARLINK-5142,PAYLOAD,2022-12-22 15:59:06,15.08836323,0.0001679,53.2174,80.183,51.5717,308.5426,4.969e-05,5.03e-06,0.0,0 STARLINK-5142,1 53984U 22125W   22356.66604295  .00000503  00000-0  49690-4 0  9997,2 53984  53.2174  80.1830 0001679  51.5717 308.5426 15.08836323 12372,6917.892,95.438,540.918,538.595,0.0
53984.0,STARLINK-5142,PAYLOAD,2022-12-23 06:17:35,15.08825551,0.0001606,53.2178,77.5068,54.1333,305.9808,8.1288e-05,1.005e-05,0.0,0 STARLINK-5142,1 53984U 22125W   22357.26221276  .00001005  00000-0  81288-4 0  9995,2 53984  53.2178  77.5068 0001606  54.1333 305.9808 15.08825551 12536,6917.925,95.438,540.901,538.679,0.0
53984.0,STARLINK-5142,PAYLOAD,2022-12-23 12:39:08,15.08817886,0.0001643,53.2176,76.3171,52.8725,307.2417,5.0062e-05,5.08e-06,0.0,0 STARLINK-5142,1 53984U 22125W   22357.52718166  .00000508  00000-0  50062-4 0  9996,2 53984  53.2176  76.3171 0001643  52.8725 307.2417 15.08817886 12507,6917.948,95.439,540.95,538.6759999999998,0.0
53984.0,STARLINK-5142,PAYLOAD,2022-12-23 15:49:54,15.0882107,0.0001649,53.2177,75.7221,53.3276,306.7868,7.2865e-05,8.71e-06,0.0,0 STARLINK-5142,1 53984U 22125W   22357.65966071  .00000871  00000-0  72865-4 0  9998,2 53984  53.2177  75.7221 0001649  53.3276 306.7868 15.08821070 12526,6917.938,95.439,540.944,538.6619999999998,0.0
53984.0,STARLINK-5142,PAYLOAD,2022-12-24 04:32:59,15.08833084,0.0001604,53.2179,73.3431,49.0426,311.0705,0.00019096,2.752e-05,0.0,0 STARLINK-5142,1 53984U 22125W   22358.18957504  .00002752  00000-0  19096-3 0  9994,2 53984  53.2179  73.3431 0001604  49.0426 311.0705 15.08833084 12678,6917.901999999999,95.438,540.876,538.6569999999998,0.0
53984.0,STARLINK-5142,PAYLOAD,2022-12-24 22:02:13,15.08844201,0.0001638,53.2181,70.0718,48.7455,311.3678,9.1109e-05,1.162e-05,0.0,0 STARLINK-5142,1 53984U 22125W   22358.91821134  .00001162  00000-0  91109-4 0  9994,2 53984  53.2181  70.0718 0001638  48.7455 311.3678 15.08844201 12718,6917.868,95.437,540.866,538.599,0.0
53984.0,STARLINK-5142,PAYLOAD,2022-12-25 04:23:46,15.0884146,0.0001621,53.2183,68.8822,49.9857,310.1277,9.7901e-05,1.27e-05,0.0,0 STARLINK-5142,1 53984U 22125W   22359.18317309  .00001270  00000-0  97901-4 0  9994,2 53984  53.2183  68.8822 0001621  49.9857 310.1277 15.08841460 12752,6917.876,95.437,540.862,538.62,0.0
53984.0,STARLINK-5142,PAYLOAD,2022-12-25 12:20:42,15.08836203,0.0001654,53.2184,67.3957,49.7025,310.4111,0.0001699,2.417e-05,0.0,0 STARLINK-5142,1 53984U 22125W   22359.51437637  .00002417  00000-0  16990-3 0  9990,2 53984  53.2184  67.3957 0001654  49.7025 310.4111 15.08836203 12879,6917.892,95.438,540.901,538.613,0.0
53984.0,STARLINK-5142,PAYLOAD,2022-12-26 04:14:33,15.0884244,0.0001597,53.2178,64.4224,48.9551,311.1579,0.00010026,1.308e-05,0.0,0 STARLINK-5142,1 53984U 22125W   22360.17677466  .00001308  00000-0  10026-3 0  9992,2 53984  53.2178  64.4224 0001597  48.9551 311.1579 15.08842440 12908,6917.873000000001,95.437,540.8430000000002,538.633,0.0
53984.0,STARLINK-5142,PAYLOAD,2022-12-26 09:00:42,15.08846166,0.0001723,53.2178,63.5304,50.6915,309.423,6.8859e-05,8.08e-06,0.0,0 STARLINK-5142,1 53984U 22125W   22360.37549284  .00000808  00000-0  68859-4 0  9992,2 53984  53.2178  63.5304 0001723  50.6915 309.4230 15.08846166 12938,6917.861999999999,95.437,540.918,538.535,0.0
53984.0,STARLINK-5142,PAYLOAD,2022-12-26 12:11:28,15.08848022,0.0001736,53.2178,62.9357,51.5113,308.6035,0.00010313,1.354e-05,0.0,0 STARLINK-5142,1 53984U 22125W   22360.50797054  .00001354  00000-0  10313-3 0  9995,2 53984  53.2178  62.9357 0001736  51.5113 308.6035 15.08848022 13021,6917.856,95.437,540.922,538.52,0.0
53984.0,STARLINK-5142,PAYLOAD,2022-12-28 03:56:05,15.08858575,0.0001943,53.2179,55.5027,50.3372,309.7791,0.0002081,3.027e-05,0.0,0 STARLINK-5142,1 53984U 22125W   22362.16395192  .00003027  00000-0  20810-3 0  9998,2 53984  53.2179  55.5027 0001943  50.3372 309.7791 15.08858575 13270,6917.824000000001,95.436,541.033,538.344,0.0
53984.0,STARLINK-5142,PAYLOAD,2022-12-29 10:08:26,15.08826656,0.0001899999999999,53.2178,49.8532,55.9376,304.1796,-0.00027242,-4.620000000000001e-05,0.0,0 STARLINK-5142,1 53984U 22125W   22363.42253370 -.00004620  00000-0 -27242-3 0  9997,2 53984  53.2178  49.8532 0001900  55.9376 304.1796 15.08826656 13464,6917.920999999999,95.438,541.101,538.472,0.0
53984.0,STARLINK-5142,PAYLOAD,2022-12-29 11:43:50,15.08825731,0.0001688,53.2172,49.5542,47.8162,312.2974,-0.00026009,-4.423e-05,0.0,0 STARLINK-5142,1 53984U 22125W   22363.48877452 -.00004423  00000-0 -26009-3 0  9997,2 53984  53.2172  49.5542 0001688  47.8162 312.2974 15.08825731 13407,6917.924,95.438,540.957,538.621,0.0
53984.0,STARLINK-5142,PAYLOAD,2022-12-30 03:37:43,15.08818758,0.0001607,53.2184,46.5804,28.1144,331.9935,-0.00014003,-2.515e-05,0.0,0 STARLINK-5142,1 53984U 22125W   22364.15119229 -.00002515  00000-0 -14003-3 0  9994,2 53984  53.2184  46.5804 0001607  28.1144 331.9935 15.08818758 13575,6917.945,95.439,540.922,538.6990000000002,0.0
53984.0,STARLINK-5142,PAYLOAD,2022-12-30 09:59:14,15.08829767,0.0001784,53.2173,45.3921,30.9517,329.158,-8.1185e-06,-4.17e-06,0.0,0 STARLINK-5142,1 53984U 22125W   22364.41614551 -.00000417  00000-0 -81185-5 0  9997,2 53984  53.2173  45.3921 0001784  30.9517 329.1580 15.08829767 13613,6917.9119999999975,95.438,541.011,538.543,0.0
53984.0,STARLINK-5142,PAYLOAD,2022-12-30 13:10:01,15.08833723,0.0001742,53.2181,44.7969,35.9814,324.1295,2.0472e-05,3.8e-07,0.0,0 STARLINK-5142,1 53984U 22125W   22364.54862351  .00000038  00000-0  20472-4 0  9992,2 53984  53.2181  44.7969 0001742  35.9814 324.1295 15.08833723 13565,6917.9,95.438,540.97,538.559,0.0
53984.0,STARLINK-5142,PAYLOAD,2022-12-30 19:31:33,15.08843667,0.0001648,53.2181,43.6078,42.7893,317.3228,0.00015596,2.195e-05,0.0,0 STARLINK-5142,1 53984U 22125W   22364.81357700  .00002195  00000-0  15596-3 0  9995,2 53984  53.2181  43.6078 0001648  42.7893 317.3228 15.08843667 13672,6917.869000000002,95.437,540.874,538.594,0.0
53984.0,STARLINK-5142,PAYLOAD,2022-12-31 13:00:47,15.08868862,0.0001725,53.2169,40.3368,38.0559,322.0555,0.00088385,0.00013818,0.0,0 STARLINK-5142,1 53984U 22125W   22365.54221658  .00013818  00000-0  88385-3 0  9998,2 53984  53.2169  40.3368 0001725  38.0559 322.0555 15.08868862 13712,6917.792,95.436,540.85,538.464,0.0
